{
    "links": {
        "self": "http://www.neowsapp.com/rest/v1/neo/54062080?api_key=iIulBulltgU6a56xZRHN4H3l9WmuAYTsLGpBGhQ2"
    },
    "id": "54062080",
    "neo_reference_id": "54062080",
    "name": "(2020 TP4)",
    "designation": "2020 TP4",
    "nasa_jpl_url": "http://ssd.jpl.nasa.gov/sbdb.cgi?sstr=54062080",
    "absolute_magnitude_h": 26.861,
    "estimated_diameter": {
        "kilometers": {
            "estimated_diameter_min": 0.0112811916,
            "estimated_diameter_max": 0.0252255114
        },
        "meters": {
            "estimated_diameter_min": 11.2811916325,
            "estimated_diameter_max": 25.2255113576
        },
        "miles": {
            "estimated_diameter_min": 0.0070098053,
            "estimated_diameter_max": 0.0156744012
        },
        "feet": {
            "estimated_diameter_min": 37.0117847557,
            "estimated_diameter_max": 82.7608666823
        }
    },
    "is_potentially_hazardous_asteroid": false,
    "close_approach_data": [
        {
            "close_approach_date": "2020-10-11",
            "close_approach_date_full": "2020-Oct-11 17:47",
            "epoch_date_close_approach": 1602438420000,
            "relative_velocity": {
                "kilometers_per_second": "13.9728339866",
                "kilometers_per_hour": "50302.2023517409",
                "miles_per_hour": "31255.8323446137"
            },
            "miss_distance": {
                "astronomical": "0.0226253161",
                "lunar": "8.8012479629",
                "kilometers": "3384699.096636707",
                "miles": "2103154.4940802766"
            },
            "orbiting_body": "Earth"
        }
    ],
    "orbital_data": {
        "orbit_id": "1",
        "orbit_determination_date": "2020-10-14 07:39:55",
        "first_observation_date": "2020-10-13",
        "last_observation_date": "2020-10-14",
        "data_arc_in_days": 1,
        "observations_used": 19,
        "orbit_uncertainty": "8",
        "minimum_orbit_intersection": ".0226233",
        "jupiter_tisserand_invariant": "3.119",
        "epoch_osculation": "2459136.5",
        "eccentricity": ".5963271551177851",
        "semi_major_axis": "2.513306753546982",
        "inclination": "19.98344971158997",
        "ascending_node_longitude": "19.44303501465583",
        "orbital_period": "1455.347399598021",
        "perihelion_distance": "1.014553687265994",
        "perihelion_argument": "349.3229619878119",
        "aphelion_distance": "4.01205981982797",
        "perihelion_time": "2459126.167430222942",
        "mean_anomaly": "2.555901855988679",
        "mean_motion": ".2473636192289448",
        "equinox": "J2000",
        "orbit_class": {
            "orbit_class_type": "APO",
            "orbit_class_description": "Near-Earth asteroid orbits which cross the Earth’s orbit similar to that of 1862 Apollo",
            "orbit_class_range": "a (semi-major axis) > 1.0 AU; q (perihelion) < 1.017 AU"
        }
    },
    "is_sentry_object": false
}